{"type": "FeatureCollection", "features": [{"type": "Feature", "properties": {"norad_id": 2807, "name": "OPS 7218 (TRANSIT 16)", "group": "nnss", "lat": 74.6316064590215, "lon": 172.5207064274472, "alt_km": 1046.7137927415988, "timestamp": "2025-12-21T22:41:41.728517+00:00", "meta": {"OBJECT_NAME": "OPS 7218 (TRANSIT 16)", "OBJECT_ID": "1967-048A", "EPOCH": "2025-12-21T12:16:37.768800", "MEAN_MOTION": 13.50724076, "ECCENTRICITY": 0.00221595, "INCLINATION": 89.6731, "RA_OF_ASC_NODE": 353.7252, "ARG_OF_PERICENTER": 90.6887, "MEAN_ANOMALY": 65.106, "EPHEMERIS_TYPE": 0, "CLASSIFICATION_TYPE": "U", "NORAD_CAT_ID": 2807, "ELEMENT_SET_NO": 999, "REV_AT_EPOCH": 88394, "BSTAR": 0.00015311094, "MEAN_MOTION_DOT": 1.09e-06, "MEAN_MOTION_DDOT": 0}, "tle": {"line1": "1 02807U 67048A   25355.51154825  .00000109  00000+0  15311-3 0  9996", "line2": "2 02807  89.6731 353.7252 0022159  90.6887  65.1060 13.50724076883942"}}, "geometry": {"type": "Point", "coordinates": [172.5207064274472, 74.6316064590215]}}, {"type": "Feature", "properties": {"norad_id": 2965, "name": "OPS 4947 (TRANSIT 17)", "group": "nnss", "lat": -80.59359946580182, "lon": -151.72391616773191, "alt_km": 1046.195405196726, "timestamp": "2025-12-21T22:41:41.728540+00:00", "meta": {"OBJECT_NAME": "OPS 4947 (TRANSIT 17)", "OBJECT_ID": "1967-092A", "EPOCH": "2025-12-21T14:52:15.199104", "MEAN_MOTION": 13.53455839, "ECCENTRICITY": 0.00468159, "INCLINATION": 89.2487, "RA_OF_ASC_NODE": 23.7581, "ARG_OF_PERICENTER": 208.0887, "MEAN_ANOMALY": 264.608, "EPHEMERIS_TYPE": 0, "CLASSIFICATION_TYPE": "U", "NORAD_CAT_ID": 2965, "ELEMENT_SET_NO": 999, "REV_AT_EPOCH": 87217, "BSTAR": 0.00019342072, "MEAN_MOTION_DOT": 1.42e-06, "MEAN_MOTION_DDOT": 0}, "tle": {"line1": "1 02965U 67092A   25355.61962036  .00000142  00000+0  19342-3 0  9997", "line2": "2 02965  89.2487  23.7581 0046815 208.0887 264.6080 13.53455839872172"}}, "geometry": {"type": "Point", "coordinates": [-151.72391616773191, -80.59359946580182]}}, {"type": "Feature", "properties": {"norad_id": 3133, "name": "OPS 7034 (TRANSIT 18)", "group": "nnss", "lat": -13.608417980988255, "lon": -86.32809933992371, "alt_km": 1121.8190212681038, "timestamp": "2025-12-21T22:41:41.728553+00:00", "meta": {"OBJECT_NAME": "OPS 7034 (TRANSIT 18)", "OBJECT_ID": "1968-012A", "EPOCH": "2025-12-21T09:08:20.853024", "MEAN_MOTION": 13.51567661, "ECCENTRICITY": 0.00746733, "INCLINATION": 90.0284, "RA_OF_ASC_NODE": 273.6634, "ARG_OF_PERICENTER": 144.2515, "MEAN_ANOMALY": 336.0028, "EPHEMERIS_TYPE": 0, "CLASSIFICATION_TYPE": "U", "NORAD_CAT_ID": 3133, "ELEMENT_SET_NO": 999, "REV_AT_EPOCH": 57035, "BSTAR": 0.00018665898, "MEAN_MOTION_DOT": 1.34e-06, "MEAN_MOTION_DDOT": 0}, "tle": {"line1": "1 03133U 68012A   25355.38079691  .00000134  00000+0  18666-3 0  9997", "line2": "2 03133  90.0284 273.6634 0074673 144.2515 336.0028 13.51567661570358"}}, "geometry": {"type": "Point", "coordinates": [-86.32809933992371, -13.608417980988255]}}, {"type": "Feature", "properties": {"norad_id": 4507, "name": "NNSS 19 (TRANSIT 19)", "group": "nnss", "lat": -48.70892323708497, "lon": -125.4541213172633, "alt_km": 983.5132644241967, "timestamp": "2025-12-21T22:41:41.728565+00:00", "meta": {"OBJECT_NAME": "NNSS 19 (TRANSIT 19)", "OBJECT_ID": "1970-067A", "EPOCH": "2025-12-21T14:02:49.659936", "MEAN_MOTION": 13.51316822, "ECCENTRICITY": 0.01702248, "INCLINATION": 90.005, "RA_OF_ASC_NODE": 234.54, "ARG_OF_PERICENTER": 267.492, "MEAN_ANOMALY": 90.6736, "EPHEMERIS_TYPE": 0, "CLASSIFICATION_TYPE": "U", "NORAD_CAT_ID": 4507, "ELEMENT_SET_NO": 999, "REV_AT_EPOCH": 72341, "BSTAR": 0.00014810801, "MEAN_MOTION_DOT": 1.13e-06, "MEAN_MOTION_DDOT": 0}, "tle": {"line1": "1 04507U 70067A   25355.58529699  .00000113  00000+0  14811-3 0  9991", "line2": "2 04507  90.0050 234.5400 0170224 267.4920  90.6736 13.51316822723416"}}, "geometry": {"type": "Point", "coordinates": [-125.4541213172633, -48.70892323708497]}}, {"type": "Feature", "properties": {"norad_id": 6909, "name": "NNSS 20 (TRANSIT 20)", "group": "nnss", "lat": -33.33088487819631, "lon": -105.17841067231643, "alt_km": 987.2914640128765, "timestamp": "2025-12-21T22:41:41.728577+00:00", "meta": {"OBJECT_NAME": "NNSS 20 (TRANSIT 20)", "OBJECT_ID": "1973-081A", "EPOCH": "2025-12-21T10:35:52.643328", "MEAN_MOTION": 13.71438625, "ECCENTRICITY": 0.01563694, "INCLINATION": 89.8562, "RA_OF_ASC_NODE": 254.9238, "ARG_OF_PERICENTER": 52.5426, "MEAN_ANOMALY": 308.9843, "EPHEMERIS_TYPE": 0, "CLASSIFICATION_TYPE": "U", "NORAD_CAT_ID": 6909, "ELEMENT_SET_NO": 999, "REV_AT_EPOCH": 80480, "BSTAR": 0.0002565532, "MEAN_MOTION_DOT": 2.63e-06, "MEAN_MOTION_DDOT": 0}, "tle": {"line1": "1 06909U 73081A   25355.44158152  .00000263  00000+0  25655-3 0  9999", "line2": "2 06909  89.8562 254.9238 0156369  52.5426 308.9843 13.71438625804806"}}, "geometry": {"type": "Point", "coordinates": [-105.17841067231643, -33.33088487819631]}}, {"type": "Feature", "properties": {"norad_id": 10457, "name": "TRANSAT", "group": "nnss", "lat": -56.87577421888903, "lon": -101.1889245268823, "alt_km": 1077.7365542830266, "timestamp": "2025-12-21T22:41:41.728587+00:00", "meta": {"OBJECT_NAME": "TRANSAT", "OBJECT_ID": "1977-106A", "EPOCH": "2025-12-21T12:40:51.231936", "MEAN_MOTION": 13.48944882, "ECCENTRICITY": 0.00262265, "INCLINATION": 89.6479, "RA_OF_ASC_NODE": 78.2859, "ARG_OF_PERICENTER": 164.3801, "MEAN_ANOMALY": 207.0891, "EPHEMERIS_TYPE": 0, "CLASSIFICATION_TYPE": "U", "NORAD_CAT_ID": 10457, "ELEMENT_SET_NO": 999, "REV_AT_EPOCH": 36862, "BSTAR": 0.0001296619, "MEAN_MOTION_DOT": 9.2e-07, "MEAN_MOTION_DDOT": 0}, "tle": {"line1": "1 10457U 77106A   25355.52837074  .00000092  00000+0  12966-3 0  9991", "line2": "2 10457  89.6479  78.2859 0026226 164.3801 207.0891 13.48944882368625"}}, "geometry": {"type": "Point", "coordinates": [-101.1889245268823, -56.87577421888903]}}, {"type": "Feature", "properties": {"norad_id": 12458, "name": "NOVA 1", "group": "nnss", "lat": 8.349382364673708, "lon": 91.27674323993055, "alt_km": 1170.4177880566212, "timestamp": "2025-12-21T22:41:41.728598+00:00", "meta": {"OBJECT_NAME": "NOVA 1", "OBJECT_ID": "1981-044A", "EPOCH": "2025-12-21T08:29:23.478144", "MEAN_MOTION": 13.23279339, "ECCENTRICITY": 0.0015835, "INCLINATION": 89.8527, "RA_OF_ASC_NODE": 91.2635, "ARG_OF_PERICENTER": 82.8153, "MEAN_ANOMALY": 347.8596, "EPHEMERIS_TYPE": 0, "CLASSIFICATION_TYPE": "U", "NORAD_CAT_ID": 12458, "ELEMENT_SET_NO": 999, "REV_AT_EPOCH": 15300, "BSTAR": 0.00010563005, "MEAN_MOTION_DOT": 5.4e-07, "MEAN_MOTION_DDOT": 0}, "tle": {"line1": "1 12458U 81044A   25355.35374396  .00000054  00000+0  10563-3 0  9993", "line2": "2 12458  89.8527  91.2635 0015835  82.8153 347.8596 13.23279339153009"}}, "geometry": {"type": "Point", "coordinates": [91.27674323993055, 8.349382364673708]}}, {"type": "Feature", "properties": {"norad_id": 15362, "name": "NOVA 3", "group": "nnss", "lat": -53.32164141718634, "lon": -99.5209444681258, "alt_km": 1173.1964943567082, "timestamp": "2025-12-21T22:41:41.728608+00:00", "meta": {"OBJECT_NAME": "NOVA 3", "OBJECT_ID": "1984-110A", "EPOCH": "2025-12-21T12:29:45.710880", "MEAN_MOTION": 13.23045611, "ECCENTRICITY": 0.00299804, "INCLINATION": 90.1221, "RA_OF_ASC_NODE": 80.6381, "ARG_OF_PERICENTER": 306.6925, "MEAN_ANOMALY": 64.0147, "EPHEMERIS_TYPE": 0, "CLASSIFICATION_TYPE": "U", "NORAD_CAT_ID": 15362, "ELEMENT_SET_NO": 999, "REV_AT_EPOCH": 98815, "BSTAR": 0.00017524755, "MEAN_MOTION_DOT": 8.2e-07, "MEAN_MOTION_DDOT": 0}, "tle": {"line1": "1 15362U 84110A   25355.52066795  .00000082  00000+0  17525-3 0  9993", "line2": "2 15362  90.1221  80.6381 0029980 306.6925  64.0147 13.23045611988158"}}, "geometry": {"type": "Point", "coordinates": [-99.5209444681258, -53.32164141718634]}}, {"type": "Feature", "properties": {"norad_id": 15935, "name": "OSCAR 30", "group": "nnss", "lat": 24.548275230922226, "lon": 99.92202400900149, "alt_km": 1016.8008515778238, "timestamp": "2025-12-21T22:41:41.728618+00:00", "meta": {"OBJECT_NAME": "OSCAR 30", "OBJECT_ID": "1985-066A", "EPOCH": "2025-12-21T06:41:53.387232", "MEAN_MOTION": 13.36079593, "ECCENTRICITY": 0.016913, "INCLINATION": 90.1655, "RA_OF_ASC_NODE": 99.9868, "ARG_OF_PERICENTER": 60.0583, "MEAN_ANOMALY": 1.5893, "EPHEMERIS_TYPE": 0, "CLASSIFICATION_TYPE": "U", "NORAD_CAT_ID": 15935, "ELEMENT_SET_NO": 999, "REV_AT_EPOCH": 96567, "BSTAR": 0.00014528, "MEAN_MOTION_DOT": 9.1e-07, "MEAN_MOTION_DDOT": 0}, "tle": {"line1": "1 15935U 85066A   25355.27909013  .00000091  00000+0  14528-3 0  9991", "line2": "2 15935  90.1655  99.9868 0169130  60.0583   1.5893 13.36079593965677"}}, "geometry": {"type": "Point", "coordinates": [99.92202400900149, 24.548275230922226]}}, {"type": "Feature", "properties": {"norad_id": 15936, "name": "OSCAR 24", "group": "nnss", "lat": 82.61105029249227, "lon": -86.1497643841539, "alt_km": 1009.0090770667848, "timestamp": "2025-12-21T22:41:41.728628+00:00", "meta": {"OBJECT_NAME": "OSCAR 24", "OBJECT_ID": "1985-066B", "EPOCH": "2025-12-21T13:17:30.278688", "MEAN_MOTION": 13.35936927, "ECCENTRICITY": 0.01702463, "INCLINATION": 90.1791, "RA_OF_ASC_NODE": 92.4613, "ARG_OF_PERICENTER": 65.7293, "MEAN_ANOMALY": 307.3973, "EPHEMERIS_TYPE": 0, "CLASSIFICATION_TYPE": "U", "NORAD_CAT_ID": 15936, "ELEMENT_SET_NO": 999, "REV_AT_EPOCH": 96761, "BSTAR": 0.00013017137, "MEAN_MOTION_DOT": 8.2e-07, "MEAN_MOTION_DDOT": 0}, "tle": {"line1": "1 15936U 85066B   25355.55382267  .00000082  00000+0  13017-3 0  9991", "line2": "2 15936  90.1791  92.4613 0170246  65.7293 307.3973 13.35936927967619"}}, "geometry": {"type": "Point", "coordinates": [-86.1497643841539, 82.61105029249227]}}]}